{
  "norad_id": 58086,
  "name": "STARLINK-30583",
  "history": [
    {
      "epoch": "2026-03-28T22:59:22.431264Z",
      "apogee_km": 486.41445231685157,
      "perigee_km": 484.6312734844705,
      "latitude_deg": 5.550335958623955e-05,
      "longitude_deg": 161.17081178323656,
      "height_km": 485.4339051144622,
      "semi_major_axis_km": 6863.659862900661,
      "eccentricity": 0.0001299,
      "inclination_deg": 43.0023,
      "raan_deg": 332.3851,
      "arg_perigee_deg": 261.348,
      "mean_anomaly_deg": 98.7225,
      "mean_motion_rev_day": 15.2675423
    }
  ]
}